{
  "type": "FeatureCollection",
  "features": [
    {
      "type": "Feature",
      "properties": {
        "norad_id": 33376,
        "name": "GALAXY 19 (G-19)",
        "group": "intelsat",
        "lat": 0.015131872044548286,
        "lon": -15.191389016143626,
        "alt_km": 35783.18134378034,
        "timestamp": "2025-12-18T23:35:48.715013+00:00",
        "meta_object_name": "GALAXY 19 (G-19)",
        "meta_object_id": "2008-045A",
        "meta_epoch": "2025-12-18T14:32:41.994240",
        "meta_mean_motion": 1.00271735,
        "meta_eccentricity": 0.00025085,
        "meta_inclination": 0.0188,
        "meta_ra_of_asc_node": 287.386,
        "meta_arg_of_pericenter": 343.4511,
        "meta_mean_anomaly": 297.8054,
        "meta_ephemeris_type": 0,
        "meta_classification_type": "U",
        "meta_norad_cat_id": 33376,
        "meta_element_set_no": 999,
        "meta_rev_at_epoch": 6309,
        "meta_bstar": 0,
        "meta_mean_motion_dot": -1.14e-06,
        "meta_mean_motion_ddot": 0,
        "tle_line1": "1 33376U 08045A   25352.60604160 -.00000114  00000+0  00000+0 0  9994",
        "tle_line2": "2 33376   0.0188 287.3860 0002508 343.4511 297.8054  1.00271735 63090"
      },
      "geometry": {
        "type": "Point",
        "coordinates": [
          -15.191389016143626,
          0.015131872044548286
        ]
      }
    },
    {
      "type": "Feature",
      "properties": {
        "norad_id": 35493,
        "name": "FM-5",
        "group": "intelsat",
        "lat": 0.020952732240639784,
        "lon": -4.36973892642168,
        "alt_km": 35790.7743401345,
        "timestamp": "2025-12-18T23:35:48.715026+00:00",
        "meta_object_name": "FM-5",
        "meta_object_id": "2009-034A",
        "meta_epoch": "2025-12-18T14:35:49.196256",
        "meta_mean_motion": 1.0027022,
        "meta_eccentricity": 0.00010746,
        "meta_inclination": 0.0192,
        "meta_ra_of_asc_node": 293.626,
        "meta_arg_of_pericenter": 221.9079,
        "meta_mean_anomaly": 64.7465,
        "meta_ephemeris_type": 0,
        "meta_classification_type": "U",
        "meta_norad_cat_id": 35493,
        "meta_element_set_no": 999,
        "meta_rev_at_epoch": 4483,
        "meta_bstar": 0,
        "meta_mean_motion_dot": -1.75e-06,
        "meta_mean_motion_ddot": 0,
        "tle_line1": "1 35493U 09034A   25352.60820829 -.00000175  00000+0  00000+0 0  9994",
        "tle_line2": "2 35493   0.0192 293.6260 0001074 221.9079  64.7465  1.00270220 44833"
      },
      "geometry": {
        "type": "Point",
        "coordinates": [
          -4.36973892642168,
          0.020952732240639784
        ]
      }
    },
    {
      "type": "Feature",
      "properties": {
        "norad_id": 36097,
        "name": "INTELSAT 14 (IS-14)",
        "group": "intelsat",
        "lat": 0.031032845835560357,
        "lon": 36.81659038994606,
        "alt_km": 35791.19474137425,
        "timestamp": "2025-12-18T23:35:48.715038+00:00",
        "meta_object_name": "INTELSAT 14 (IS-14)",
        "meta_object_id": "2009-064A",
        "meta_epoch": "2025-12-18T09:39:23.827968",
        "meta_mean_motion": 1.00271786,
        "meta_eccentricity": 0.00024326,
        "meta_inclination": 0.0111,
        "meta_ra_of_asc_node": 333.9725,
        "meta_arg_of_pericenter": 303.5826,
        "meta_mean_anomaly": 269.5724,
        "meta_ephemeris_type": 0,
        "meta_classification_type": "U",
        "meta_norad_cat_id": 36097,
        "meta_element_set_no": 999,
        "meta_rev_at_epoch": 5879,
        "meta_bstar": 0,
        "meta_mean_motion_dot": -2.48e-06,
        "meta_mean_motion_ddot": 0,
        "tle_line1": "1 36097U 09064A   25352.40235912 -.00000248  00000+0  00000+0 0  9990",
        "tle_line2": "2 36097   0.0111 333.9725 0002432 303.5826 269.5724  1.00271786 58796"
      },
      "geometry": {
        "type": "Point",
        "coordinates": [
          36.81659038994606,
          0.031032845835560357
        ]
      }
    },
    {
      "type": "Feature",
      "properties": {
        "norad_id": 36106,
        "name": "INTELSAT 15 (IS-15)",
        "group": "intelsat",
        "lat": 0.0036847823371598063,
        "lon": 166.9154584514087,
        "alt_km": 35789.224832565975,
        "timestamp": "2025-12-18T23:35:48.715050+00:00",
        "meta_object_name": "INTELSAT 15 (IS-15)",
        "meta_object_id": "2009-067A",
        "meta_epoch": "2025-12-18T13:42:01.846944",
        "meta_mean_motion": 1.00272283,
        "meta_eccentricity": 0.00021403,
        "meta_inclination": 0.0172,
        "meta_ra_of_asc_node": 353.6231,
        "meta_arg_of_pericenter": 284.4963,
        "meta_mean_anomaly": 99.978,
        "meta_ephemeris_type": 0,
        "meta_classification_type": "U",
        "meta_norad_cat_id": 36106,
        "meta_element_set_no": 999,
        "meta_rev_at_epoch": 3941,
        "meta_bstar": 0,
        "meta_mean_motion_dot": -1.6e-06,
        "meta_mean_motion_ddot": 0,
        "tle_line1": "1 36106U 09067A   25352.57085471 -.00000160  00000+0  00000+0 0  9998",
        "tle_line2": "2 36106   0.0172 353.6231 0002140 284.4963  99.9780  1.00272283 39418"
      },
      "geometry": {
        "type": "Point",
        "coordinates": [
          166.9154584514087,
          0.0036847823371598063
        ]
      }
    },
    {
      "type": "Feature",
      "properties": {
        "norad_id": 36131,
        "name": "DIRECTV 12",
        "group": "intelsat",
        "lat": -0.008070296011155767,
        "lon": -20.930098029085727,
        "alt_km": 35783.81888598282,
        "timestamp": "2025-12-18T23:35:48.715062+00:00",
        "meta_object_name": "DIRECTV 12",
        "meta_object_id": "2009-075A",
        "meta_epoch": "2025-12-18T13:00:54.580896",
        "meta_mean_motion": 1.00273237,
        "meta_eccentricity": 4.543e-05,
        "meta_inclination": 0.032,
        "meta_ra_of_asc_node": 123.7074,
        "meta_arg_of_pericenter": 227.1544,
        "meta_mean_anomaly": 189.0579,
        "meta_ephemeris_type": 0,
        "meta_classification_type": "U",
        "meta_norad_cat_id": 36131,
        "meta_element_set_no": 999,
        "meta_rev_at_epoch": 4474,
        "meta_bstar": 0,
        "meta_mean_motion_dot": -7.9e-07,
        "meta_mean_motion_ddot": 0,
        "tle_line1": "1 36131U 09075A   25352.54229839 -.00000079  00000+0  00000+0 0  9999",
        "tle_line2": "2 36131   0.0320 123.7074 0000454 227.1544 189.0579  1.00273237 44746"
      },
      "geometry": {
        "type": "Point",
        "coordinates": [
          -20.930098029085727,
          -0.008070296011155767
        ]
      }
    },
    {
      "type": "Feature",
      "properties": {
        "norad_id": 36397,
        "name": "INTELSAT 16 (IS-16)",
        "group": "intelsat",
        "lat": 0.011395549398026629,
        "lon": 5.608927606896972,
        "alt_km": 35786.91401286194,
        "timestamp": "2025-12-18T23:35:48.715074+00:00",
        "meta_object_name": "INTELSAT 16 (IS-16)",
        "meta_object_id": "2010-006A",
        "meta_epoch": "2025-12-18T12:16:25.698720",
        "meta_mean_motion": 1.00272428,
        "meta_eccentricity": 0.00018252,
        "meta_inclination": 0.0065,
        "meta_ra_of_asc_node": 343.5939,
        "meta_arg_of_pericenter": 284.841,
        "meta_mean_anomaly": 286.8526,
        "meta_ephemeris_type": 0,
        "meta_classification_type": "U",
        "meta_norad_cat_id": 36397,
        "meta_element_set_no": 999,
        "meta_rev_at_epoch": 5784,
        "meta_bstar": 0,
        "meta_mean_motion_dot": -2.2e-06,
        "meta_mean_motion_ddot": 0,
        "tle_line1": "1 36397U 10006A   25352.51140855 -.00000220  00000+0  00000+0 0  9994",
        "tle_line2": "2 36397   0.0065 343.5939 0001825 284.8410 286.8526  1.00272428 57847"
      },
      "geometry": {
        "type": "Point",
        "coordinates": [
          5.608927606896972,
          0.011395549398026629
        ]
      }
    },
    {
      "type": "Feature",
      "properties": {
        "norad_id": 37185,
        "name": "XM-5",
        "group": "intelsat",
        "lat": 0.039419075254346486,
        "lon": -33.40761998788021,
        "alt_km": 35793.61263013982,
        "timestamp": "2025-12-18T23:35:48.715086+00:00",
        "meta_object_name": "XM-5",
        "meta_object_id": "2010-053A",
        "meta_epoch": "2025-12-18T14:27:34.983936",
        "meta_mean_motion": 1.00273692,
        "meta_eccentricity": 0.00019231,
        "meta_inclination": 0.0631,
        "meta_ra_of_asc_node": 271.8584,
        "meta_arg_of_pericenter": 235.4563,
        "meta_mean_anomaly": 41.8538,
        "meta_ephemeris_type": 0,
        "meta_classification_type": "U",
        "meta_norad_cat_id": 37185,
        "meta_element_set_no": 999,
        "meta_rev_at_epoch": 5567,
        "meta_bstar": 0,
        "meta_mean_motion_dot": 2e-08,
        "meta_mean_motion_ddot": 0,
        "tle_line1": "1 37185U 10053A   25352.60248824  .00000002  00000+0  00000+0 0  9994",
        "tle_line2": "2 37185   0.0631 271.8584 0001923 235.4563  41.8538  1.00273692 55676"
      },
      "geometry": {
        "type": "Point",
        "coordinates": [
          -33.40761998788021,
          0.039419075254346486
        ]
      }
    }
  ]
}